ICEYE-X50               
1 63255U 25052AX  26204.82789910  .00001499  00000+0  14089-3 0  9990
2 63255  97.6842  96.0127 0003419  87.4057 272.7555 14.95382079 74127
ICEYE-X51               
1 63257U 25052AZ  26203.79241580  .00004103  00000+0  32696-3 0  9992
2 63257  97.7619  98.8279 0002114  62.8734 297.2705 15.00900798 74142
ICEYE-X54               
1 64570U 25135AU  26204.57703881  .00003512  00000+0  32889-3 0  9994
2 64570  97.7742 318.6549 0002486 168.2129 191.9150 14.94700818 59333
ICEYE-X52               
1 64572U 25135AW  26204.84892020  .00001772  00000+0  17295-3 0  9990
2 64572  97.7773 318.7021 0001971 164.2480 195.8802 14.93674478 59359
ICEYE-X56               
1 64574U 25135AY  26204.82623723  .00002746  00000+0  25122-3 0  9992
2 64574  97.7771 319.5068 0001915 167.4466 192.6803 14.95803576 59403
ICEYE-X57               
1 64578U 25135BC  26204.80170843  .00002149  00000+0  17379-3 0  9996
2 64578  97.8044 321.3904 0002145  54.1921 305.9502 15.00870244 59515
ICEYE-X55               
1 64581U 25135BF  26204.83601549  .00003062  00000+0  28245-3 0  9994
2 64581  97.7763 319.3366 0002603 202.9858 157.1246 14.95398176 59396
ICEYE-X53               
1 64584U 25135BJ  26204.82530252  .00003828  00000+0  30516-3 0  9992
2 64584  97.7347 321.4435 0002315 163.0267 197.1035 15.00931504 59574
ICEYE-X58               
1 66751U 25276CP  26204.65487490  .00002569  00000+0  13207-3 0  9991
2 66751  97.4188 277.3593 0003021 179.2265 180.8974 15.17340706 35940
ICEYE-X59               
1 66752U 25276CQ  26204.61339594  .00004338  00000+0  34598-3 0  9991
2 66752  97.4409 274.3552 0001508 125.4291 234.7074 15.00808188 35731
