{
 "generated_at": "2026-07-24T07:31:19Z",
 "sources": [
  {
   "name": "CelesTrak",
   "url": "https://celestrak.org/NORAD/elements/",
   "license": "frei verfügbar; Attribution. Ursprünglich USSPACECOM/Space-Track."
  },
  {
   "name": "GCAT (J. McDowell, planet4589.org)",
   "url": "https://planet4589.org/space/gcat/",
   "license": "CC-BY 4.0"
  }
 ],
 "satellites": [
  {
   "norad": 63255,
   "name": "ICEYE-X50",
   "intl": "2025-052AX",
   "group": "sar",
   "gcat": {
    "class": "B",
    "category": "IMG-R",
    "owner": "ICEYE",
    "state": "FI"
   },
   "omm": {
    "OBJECT_NAME": "ICEYE-X50",
    "OBJECT_ID": "2025-052AX",
    "EPOCH": "2026-07-23T19:52:10.482240",
    "MEAN_MOTION": 14.95382079,
    "ECCENTRICITY": 0.0003419,
    "INCLINATION": 97.6842,
    "RA_OF_ASC_NODE": 96.0127,
    "ARG_OF_PERICENTER": 87.4057,
    "MEAN_ANOMALY": 272.7555,
    "EPHEMERIS_TYPE": 0,
    "CLASSIFICATION_TYPE": "U",
    "NORAD_CAT_ID": 63255,
    "ELEMENT_SET_NO": 999,
    "REV_AT_EPOCH": 7412,
    "BSTAR": 0.00014089,
    "MEAN_MOTION_DOT": 0.00001499,
    "MEAN_MOTION_DDOT": 0
   }
  },
  {
   "norad": 63257,
   "name": "ICEYE-X51",
   "intl": "2025-052AZ",
   "group": "sar",
   "gcat": {
    "class": "B",
    "category": "IMG-R",
    "owner": "ICEUS",
    "state": "US"
   },
   "omm": {
    "OBJECT_NAME": "ICEYE-X51",
    "OBJECT_ID": "2025-052AZ",
    "EPOCH": "2026-07-22T19:01:04.725120",
    "MEAN_MOTION": 15.00900798,
    "ECCENTRICITY": 0.00021141,
    "INCLINATION": 97.7619,
    "RA_OF_ASC_NODE": 98.8279,
    "ARG_OF_PERICENTER": 62.8734,
    "MEAN_ANOMALY": 297.2705,
    "EPHEMERIS_TYPE": 0,
    "CLASSIFICATION_TYPE": "U",
    "NORAD_CAT_ID": 63257,
    "ELEMENT_SET_NO": 999,
    "REV_AT_EPOCH": 7414,
    "BSTAR": 0.00032695867,
    "MEAN_MOTION_DOT": 0.00004103,
    "MEAN_MOTION_DDOT": 0
   }
  },
  {
   "norad": 64572,
   "name": "ICEYE-X52",
   "intl": "2025-135AW",
   "group": "sar",
   "gcat": {
    "class": "B",
    "category": "IMG-R",
    "owner": "ICEYE",
    "state": "FI"
   },
   "omm": {
    "OBJECT_NAME": "ICEYE-X52",
    "OBJECT_ID": "2025-135AW",
    "EPOCH": "2026-07-23T20:22:26.705280",
    "MEAN_MOTION": 14.93674478,
    "ECCENTRICITY": 0.0001971,
    "INCLINATION": 97.7773,
    "RA_OF_ASC_NODE": 318.7021,
    "ARG_OF_PERICENTER": 164.248,
    "MEAN_ANOMALY": 195.8802,
    "EPHEMERIS_TYPE": 0,
    "CLASSIFICATION_TYPE": "U",
    "NORAD_CAT_ID": 64572,
    "ELEMENT_SET_NO": 999,
    "REV_AT_EPOCH": 5935,
    "BSTAR": 0.00017295,
    "MEAN_MOTION_DOT": 0.00001772,
    "MEAN_MOTION_DDOT": 0
   }
  },
  {
   "norad": 64584,
   "name": "ICEYE-X53",
   "intl": "2025-135BJ",
   "group": "sar",
   "gcat": {
    "class": "B",
    "category": "IMG-R",
    "owner": "ICEYE",
    "state": "FI"
   },
   "omm": {
    "OBJECT_NAME": "ICEYE-X53",
    "OBJECT_ID": "2025-135BJ",
    "EPOCH": "2026-07-23T19:48:26.137728",
    "MEAN_MOTION": 15.00931504,
    "ECCENTRICITY": 0.0002315,
    "INCLINATION": 97.7347,
    "RA_OF_ASC_NODE": 321.4435,
    "ARG_OF_PERICENTER": 163.0267,
    "MEAN_ANOMALY": 197.1035,
    "EPHEMERIS_TYPE": 0,
    "CLASSIFICATION_TYPE": "U",
    "NORAD_CAT_ID": 64584,
    "ELEMENT_SET_NO": 999,
    "REV_AT_EPOCH": 5957,
    "BSTAR": 0.00030516,
    "MEAN_MOTION_DOT": 0.00003828,
    "MEAN_MOTION_DDOT": 0
   }
  },
  {
   "norad": 64570,
   "name": "ICEYE-X54",
   "intl": "2025-135AU",
   "group": "sar",
   "gcat": {
    "class": "B",
    "category": "IMG-R",
    "owner": "ICEYE",
    "state": "FI"
   },
   "omm": {
    "OBJECT_NAME": "ICEYE-X54",
    "OBJECT_ID": "2025-135AU",
    "EPOCH": "2026-07-23T13:50:56.153184",
    "MEAN_MOTION": 14.94700818,
    "ECCENTRICITY": 0.0002486,
    "INCLINATION": 97.7742,
    "RA_OF_ASC_NODE": 318.6549,
    "ARG_OF_PERICENTER": 168.2129,
    "MEAN_ANOMALY": 191.915,
    "EPHEMERIS_TYPE": 0,
    "CLASSIFICATION_TYPE": "U",
    "NORAD_CAT_ID": 64570,
    "ELEMENT_SET_NO": 999,
    "REV_AT_EPOCH": 5933,
    "BSTAR": 0.00032889,
    "MEAN_MOTION_DOT": 0.00003512,
    "MEAN_MOTION_DDOT": 0
   }
  },
  {
   "norad": 64581,
   "name": "ICEYE-X55",
   "intl": "2025-135BF",
   "group": "sar",
   "gcat": {
    "class": "B",
    "category": "IMG-R",
    "owner": "ICEYE",
    "state": "FI"
   },
   "omm": {
    "OBJECT_NAME": "ICEYE-X55",
    "OBJECT_ID": "2025-135BF",
    "EPOCH": "2026-07-23T20:03:51.738336",
    "MEAN_MOTION": 14.95398176,
    "ECCENTRICITY": 0.0002603,
    "INCLINATION": 97.7763,
    "RA_OF_ASC_NODE": 319.3366,
    "ARG_OF_PERICENTER": 202.9858,
    "MEAN_ANOMALY": 157.1246,
    "EPHEMERIS_TYPE": 0,
    "CLASSIFICATION_TYPE": "U",
    "NORAD_CAT_ID": 64581,
    "ELEMENT_SET_NO": 999,
    "REV_AT_EPOCH": 5939,
    "BSTAR": 0.00028245,
    "MEAN_MOTION_DOT": 0.00003062,
    "MEAN_MOTION_DDOT": 0
   }
  },
  {
   "norad": 64574,
   "name": "ICEYE-X56",
   "intl": "2025-135AY",
   "group": "sar",
   "gcat": {
    "class": "B",
    "category": "IMG-R",
    "owner": "ICEYE",
    "state": "FI"
   },
   "omm": {
    "OBJECT_NAME": "ICEYE-X56",
    "OBJECT_ID": "2025-135AY",
    "EPOCH": "2026-07-23T19:49:46.896672",
    "MEAN_MOTION": 14.95803576,
    "ECCENTRICITY": 0.0001915,
    "INCLINATION": 97.7771,
    "RA_OF_ASC_NODE": 319.5068,
    "ARG_OF_PERICENTER": 167.4466,
    "MEAN_ANOMALY": 192.6803,
    "EPHEMERIS_TYPE": 0,
    "CLASSIFICATION_TYPE": "U",
    "NORAD_CAT_ID": 64574,
    "ELEMENT_SET_NO": 999,
    "REV_AT_EPOCH": 5940,
    "BSTAR": 0.00025122,
    "MEAN_MOTION_DOT": 0.00002746,
    "MEAN_MOTION_DDOT": 0
   }
  },
  {
   "norad": 64578,
   "name": "ICEYE-X57",
   "intl": "2025-135BC",
   "group": "sar",
   "gcat": {
    "class": "B",
    "category": "IMG-R",
    "owner": "ICEUS",
    "state": "US"
   },
   "omm": {
    "OBJECT_NAME": "ICEYE-X57",
    "OBJECT_ID": "2025-135BC",
    "EPOCH": "2026-07-23T19:14:27.608352",
    "MEAN_MOTION": 15.00870244,
    "ECCENTRICITY": 0.0002145,
    "INCLINATION": 97.8044,
    "RA_OF_ASC_NODE": 321.3904,
    "ARG_OF_PERICENTER": 54.1921,
    "MEAN_ANOMALY": 305.9502,
    "EPHEMERIS_TYPE": 0,
    "CLASSIFICATION_TYPE": "U",
    "NORAD_CAT_ID": 64578,
    "ELEMENT_SET_NO": 999,
    "REV_AT_EPOCH": 5951,
    "BSTAR": 0.00017379,
    "MEAN_MOTION_DOT": 0.00002149,
    "MEAN_MOTION_DDOT": 0
   }
  },
  {
   "norad": 66751,
   "name": "ICEYE-X58",
   "intl": "2025-276CP",
   "group": "sar",
   "gcat": {
    "class": "B",
    "category": "IMG-R",
    "owner": "ICEYE",
    "state": "FI"
   },
   "omm": {
    "OBJECT_NAME": "ICEYE-X58",
    "OBJECT_ID": "2025-276CP",
    "EPOCH": "2026-07-23T15:43:01.191360",
    "MEAN_MOTION": 15.17340706,
    "ECCENTRICITY": 0.0003021,
    "INCLINATION": 97.4188,
    "RA_OF_ASC_NODE": 277.3593,
    "ARG_OF_PERICENTER": 179.2265,
    "MEAN_ANOMALY": 180.8974,
    "EPHEMERIS_TYPE": 0,
    "CLASSIFICATION_TYPE": "U",
    "NORAD_CAT_ID": 66751,
    "ELEMENT_SET_NO": 999,
    "REV_AT_EPOCH": 3594,
    "BSTAR": 0.00013207,
    "MEAN_MOTION_DOT": 0.00002569,
    "MEAN_MOTION_DDOT": 0
   }
  },
  {
   "norad": 66752,
   "name": "ICEYE-X59",
   "intl": "2025-276CQ",
   "group": "sar",
   "gcat": {
    "class": "B",
    "category": "IMG-R",
    "owner": "ELKED",
    "state": "GR"
   },
   "omm": {
    "OBJECT_NAME": "ICEYE-X59",
    "OBJECT_ID": "2025-276CQ",
    "EPOCH": "2026-07-23T14:43:17.409216",
    "MEAN_MOTION": 15.00808188,
    "ECCENTRICITY": 0.0001508,
    "INCLINATION": 97.4409,
    "RA_OF_ASC_NODE": 274.3552,
    "ARG_OF_PERICENTER": 125.4291,
    "MEAN_ANOMALY": 234.7074,
    "EPHEMERIS_TYPE": 0,
    "CLASSIFICATION_TYPE": "U",
    "NORAD_CAT_ID": 66752,
    "ELEMENT_SET_NO": 999,
    "REV_AT_EPOCH": 3573,
    "BSTAR": 0.00034598,
    "MEAN_MOTION_DOT": 0.00004338,
    "MEAN_MOTION_DDOT": 0
   }
  }
 ]
}
